[{"OBJECT_NAME":"STARLINK-33779","OBJECT_ID":"2025-094S","EPOCH":"2026-03-09T21:49:31.022976","MEAN_MOTION":14.98353234,"ECCENTRICITY":0.00026753,"INCLINATION":70.0014,"RA_OF_ASC_NODE":234.0017,"ARG_OF_PERICENTER":271.8394,"MEAN_ANOMALY":88.2459,"EPHEMERIS_TYPE":0,"CLASSIFICATION_TYPE":"U","NORAD_CAT_ID":63880,"ELEMENT_SET_NO":999,"REV_AT_EPOCH":4723,"BSTAR":0.00050903307,"MEAN_MOTION_DOT":5.989e-5,"MEAN_MOTION_DDOT":0},{"OBJECT_NAME":"DELTA 1 DEB","OBJECT_ID":"1977-065AY","EPOCH":"2026-03-09T09:31:52.025088","MEAN_MOTION":14.67405758,"ECCENTRICITY":0.02967978,"INCLINATION":29.0245,"RA_OF_ASC_NODE":176.3039,"ARG_OF_PERICENTER":150.7849,"MEAN_ANOMALY":210.9696,"EPHEMERIS_TYPE":0,"CLASSIFICATION_TYPE":"U","NORAD_CAT_ID":10221,"ELEMENT_SET_NO":999,"REV_AT_EPOCH":45797,"BSTAR":0.0014159957,"MEAN_MOTION_DOT":0.00016256,"MEAN_MOTION_DDOT":0}]
